STARLINK-3622           
1 51768U 22017A   22084.00002315 -.00074018  00000+0 -52657-3 0  9995
2 51768  53.2185   8.2354 0001255  58.2283 136.8967 15.73246096  5532
STARLINK-3621           
1 51769U 22017B   22084.00002315  .00022543  00000+0  16474-3 0  9997
2 51769  53.2182   8.2325 0001100  60.2274 136.1936 15.73180732  5533
STARLINK-3612           
1 51770U 22017C   22084.00002315  .00006469  00000+0  50474-4 0  9997
2 51770  53.2163   8.2337 0001343  72.8090 122.9581 15.73199639  5536
STARLINK-3614           
1 51771U 22017D   22084.00002315 -.00087394  00000+0 -62310-3 0  9997
2 51771  53.2165   8.2315 0001093  54.8857 142.1619 15.73262258  5532
STARLINK-3623           
1 51772U 22017E   22084.00002315  .00009421  00000+0  71491-4 0  9992
2 51772  53.2171   8.2270 0001466  66.8512 132.1168 15.73191779  5587
STARLINK-3624           
1 51773U 22017F   22084.00002315  .00021320  00000+0  15595-3 0  9997
2 51773  53.2184   8.2301 0001400  70.3805 127.2607 15.73197645  5547
STARLINK-3629           
1 51774U 22017G   22084.00002315  .00004284  00000+0  34948-4 0  9992
2 51774  53.2167   8.2243 0001249  74.6906 125.5429 15.73184772  5544
STARLINK-3620           
1 51775U 22017H   22084.00002315  .00022286  00000+0  16284-3 0  9997
2 51775  53.2184   8.2287 0000946  82.3534 115.9845 15.73191432  5533
STARLINK-3608           
1 51776U 22017J   22083.91667824  .00016704  00000+0  12321-3 0  9995
2 51776  53.2184   8.6364 0001114  57.0483  31.5669 15.73196699  3708
STARLINK-3625           
1 51777U 22017K   22084.00002315  .00019396  00000+0  14227-3 0  9992
2 51777  53.2169   8.2254 0001450  72.6996 126.8822 15.73203715  5542
STARLINK-3615           
1 51778U 22017L   22084.00002315 -.00073178  00000+0 -52050-3 0  9999
2 51778  53.2203   7.8770 0001254  79.5446 293.5836 15.73245869  5552
STARLINK-3611           
1 51779U 22017M   22084.00002315  .00023082  00000+0  16848-3 0  9992
2 51779  53.2167   8.2219 0001260  61.7775 139.7068 15.73191790  5539
STARLINK-3617           
1 51780U 22017N   22084.00002315  .00005851  00000+0  46091-4 0  9992
2 51780  53.2173   8.2173 0001153  72.1730 131.9150 15.73192332  5589
STARLINK-3580           
1 51781U 22017P   22084.00002315  .00022167  00000+0  16193-3 0  9991
2 51781  53.2182   8.2211 0001233  67.3411 134.7891 15.73201681  5541
STARLINK-3616           
1 51782U 22017Q   22084.00002315 -.00715314  00000+0 -79561-2 0  9994
2 51782  53.2174   8.3593 0001432  47.9578  68.0672 15.64479714  5535
STARLINK-3628           
1 51783U 22017R   22084.00002315 -.00049687  00000+0 -35114-3 0  9995
2 51783  53.2169   8.2181 0001062  78.5740 124.8682 15.73237425  5535
STARLINK-3632           
1 51784U 22017S   22084.00002315 -.00715113  00000+0 -79131-2 0  9996
2 51784  53.2175   8.3587 0001469  44.8439  74.4259 15.64607374  5541
STARLINK-3646           
1 51785U 22017T   22084.00002315 -.00071166  00000+0 -50577-3 0  9994
2 51785  53.2171   8.2154 0000980  66.0439 138.6550 15.73254642  5587
STARLINK-3638           
1 51786U 22017U   22084.00002315 -.00715047  00000+0 -78321-2 0  9994
2 51786  53.2175   8.3571 0001334  55.2842  70.3599 15.64862947  5586
STARLINK-3619           
1 51787U 22017V   22084.00002315 -.00715268  00000+0 -79957-2 0  9996
2 51787  53.2174   8.3598 0001657  37.1193  75.6226 15.64351852  5539
STARLINK-3641           
1 51788U 22017W   22084.00002315 -.00714558  00000+0 -77067-2 0  9998
2 51788  53.2175   8.3542 0001387  53.3458  81.5721 15.65246091  5539
STARLINK-3639           
1 51789U 22017X   22084.00002315 -.00715184  00000+0 -78739-2 0  9992
2 51789  53.2174   8.3579 0001334  53.9306  68.5456 15.64735225  5541
STARLINK-3631           
1 51790U 22017Y   22084.00002315 -.00714691  00000+0 -76690-2 0  9990
2 51790  53.2175   8.3531 0001269  61.8526  76.0796 15.65373949  5588
STARLINK-3602           
1 51791U 22017Z   22084.00002315 -.00714741  00000+0 -77882-2 0  9991
2 51791  53.2175   8.3562 0001458  46.6808  82.0931 15.64990559  5531
STARLINK-3626           
1 51792U 22017AA  22084.00002315 -.00714322  00000+0 -75860-2 0  9991
2 51792  53.2175   8.3506 0001365  54.9216  88.9242 15.65629335  5589
STARLINK-3633           
1 51793U 22017AB  22084.00002315 -.00714749  00000+0 -77487-2 0  9992
2 51793  53.2175   8.3552 0001349  54.1921  77.6730 15.65118372  5589
STARLINK-3573           
1 51794U 22017AC  22083.91667824 -.00719261  00000+0 -75255-2 0  9999
2 51794  53.2178   8.7546 0001044  76.3143 323.1727 15.66015518  5522
STARLINK-3586           
1 51795U 22017AD  22084.00002315 -.00714350  00000+0 -75475-2 0  9997
2 51795  53.2175   8.3491 0001273  63.5464  83.1985 15.65757163  5531
STARLINK-3630           
1 51796U 22017AE  22084.16667824 -.00717814  00000+0 -82585-2 0  9995
2 51796  53.2176   7.5271 0001266  56.0281 275.2015 15.63639226  5564
STARLINK-3627           
1 51797U 22017AF  22084.16667824 -.00717839  00000+0 -77452-2 0  9990
2 51797  53.2177   7.5381 0001050  88.2057 272.3961 15.65248692  5616
STARLINK-3634           
1 51798U 22017AG  22084.16667824 -.00717972  00000+0 -82186-2 0  9999
2 51798  53.2176   7.5267 0001292  53.1088 281.6186 15.63767116  5619
STARLINK-3637           
1 51799U 22017AH  22083.91667824 -.00719405  00000+0 -74879-2 0  9995
2 51799  53.2178   8.7530 0001210  53.3666 348.9044 15.66143383  3707
STARLINK-3600           
1 51800U 22017AJ  22083.91667824 -.00718901  00000+0 -80349-2 0  9997
2 51800  53.2177   8.7462 0001130  59.7136 312.5883 15.64371579  3702
STARLINK-3592           
1 51801U 22017AK  22084.16667824 -.00717668  00000+0 -82987-2 0  9995
2 51801  53.2176   7.5273 0001238  59.3059 268.3875 15.63511353  5579
STARLINK-3557           
1 51802U 22017AL  22084.16667824 -.00717638  00000+0 -77680-2 0  9997
2 51802  53.2177   7.5258 0001056  99.8298 266.2779 15.65167941  5567
STARLINK-3544           
1 51803U 22017AM  22083.91667824 -.00718936  00000+0 -80653-2 0  9996
2 51803  53.2177   8.7467 0001147  58.2246 311.4839 15.64278121  3702
STARLINK-3601           
1 51804U 22017AN  22084.16667824  .00070865  00000+0  50585-3 0  9997
2 51804  53.2204   7.3493 0001395  69.6511  23.4038 15.73164472  5610
STARLINK-3605           
1 51805U 22017AP  22084.00002315 -.00027217  00000+0 -19016-3 0  9998
2 51805  53.2176   8.1900 0001470  74.5941 142.9452 15.73196046  5582
STARLINK-3581           
1 51806U 22017AQ  22083.91667824  .00017137  00000+0  12633-3 0  9996
2 51806  53.2185   8.5964 0000930  76.5356  31.8438 15.73187934  5529
STARLINK-3606           
1 51807U 22017AR  22084.16667824 -.00001704  00000+0 -77256-5 0  9994
2 51807  53.2182   7.3638 0001178  77.4093   5.7665 15.73205120  5615
STARLINK-3609           
1 51808U 22017AS  22083.91667824  .00022669  00000+0  16554-3 0  9990
2 51808  53.2186   8.5937 0000920  91.9897  17.6732 15.73193846  5520
STARLINK-3607           
1 51809U 22017AT  22084.00002315 -.00030240  00000+0 -21161-3 0  9996
2 51809  53.2179   8.1865 0001319  84.5202 134.8757 15.73222655  5531
STARLINK-3613           
1 51810U 22017AU  22083.91667824  .00018747  00000+0  13768-3 0  9999
2 51810  53.2184   8.5909 0001315  69.4586  41.4875 15.73202184  5523
STARLINK-3569           
1 51811U 22017AV  22083.91667824  .00018117  00000+0  13323-3 0  9998
2 51811  53.2182   8.5943 0001147  91.4442  17.5541 15.73198696  3703
STARLINK-3610           
1 51812U 22017AW  22083.91667824  .00017523  00000+0  12904-3 0  9993
2 51812  53.2173   8.5894 0001081 100.2922  11.2836 15.73194312  5529
STARLINK-3552           
1 51813U 22017AX  22083.91667824  .00024312  00000+0  17705-3 0  9992
2 51813  53.2181   8.5918 0001327  98.9682  11.3045 15.73211408  5524
STARLINK-3599           
1 51814U 22017AY  22083.91667824  .00021235  00000+0  15545-3 0  9994
2 51814  53.2166   8.5872 0000996  95.6117  17.2694 15.73182522  5524
STARLINK-3604           
1 51815U 22017AZ  22084.16667824 -.00031273  00000+0 -21918-3 0  9999
2 51815  53.2178   7.3520 0001189  65.0931  23.8114 15.73205649  5565
STARLINK-3603           
1 51816U 22017BA  22083.91667824  .00020601  00000+0  15092-3 0  9999
2 51816  53.2186   8.5862 0001093  94.3394  19.1648 15.73186739  3701
STARLINK-3596           
1 51817U 22017BB  22084.03027773 -.00071366  00000+0 -30211-3 0  9993
2 51817  53.2217   5.8942 0007466 273.0489  86.9682 15.84593045  5578
FALCON 9 DEB            
1 51818U 22017BC  22084.07023065  .00340003  58944-4  70878-3 0  9991
2 51818  53.2307   4.7071 0002716 337.1775  22.9135 15.98558310  4363
FALCON 9 DEB            
1 51819U 22017BD  22083.92881171  .00384149  74305-4  71678-3 0  9992
2 51819  53.2263   5.2296 0002990 268.2308  91.8381 16.00486362  4347
FALCON 9 DEB            
1 51820U 22017BE  22083.97073203  .00359045  67129-4  62143-3 0  9998
2 51820  53.2236   4.7571 0005949 303.1350  56.9112 16.01760173  4353
FALCON 9 DEB            
1 51821U 22017BF  22083.09363598  .00397709  79936-4  70167-3 0  9994
2 51821  53.2200   9.2349 0005714 279.7957  80.2430 16.01422582  4216
L-SAR 01B               
1 51822U 22018A   22084.18107521  .00000266  00000+0  34504-4 0  9995
2 51822  97.8105  92.7515 0001627  84.9411 275.2023 14.88416775  3894
CZ-4C R/B               
1 51823U 22018B   22083.97092519  .00005542  00000+0  20604-3 0  9999
2 51823  97.8624  94.0520 0131707 311.4610  47.5383 15.20160540  3953
2022-019A               
1 51824U 22019A   22084.11604037  .00002095  00000+0  13709-3 0  9990
2 51824  97.5174 160.3847 0020874 176.9906 242.3699 15.08678166  3920
2022-019B               
1 51825U 22019B   22084.23928976  .00001661  00000+0  10889-3 0  9999
2 51825  97.5168 160.5105 0018996 172.6692 219.3462 15.08918883  3936
2022-019C               
1 51826U 22019C   22084.23564808  .00002361  00000+0  15221-3 0  9993
2 51826  97.5162 160.5102 0018351 174.0789 217.1828 15.09142555  3934
